[
  {
    "OBJECT_NAME": "COSMOS 2534 (758)",
    "OBJECT_ID": "2019-030A",
    "EPOCH": "2026-06-27T07:48:11.380608",
    "MEAN_MOTION": 2.13102451,
    "ECCENTRICITY": 0.0013563,
    "INCLINATION": 64.3693,
    "RA_OF_ASC_NODE": 192.2752,
    "ARG_OF_PERICENTER": 275.0761,
    "MEAN_ANOMALY": 81.5437,
    "EPHEMERIS_TYPE": 0,
    "CLASSIFICATION_TYPE": "U",
    "NORAD_CAT_ID": 44299,
    "ELEMENT_SET_NO": 999,
    "REV_AT_EPOCH": 5513,
    "BSTAR": 0,
    "MEAN_MOTION_DOT": 1e-06,
    "MEAN_MOTION_DDOT": 0
  },
  {
    "OBJECT_NAME": "COSMOS 2544 (759)",
    "OBJECT_ID": "2019-088A",
    "EPOCH": "2026-06-25T22:41:15.294624",
    "MEAN_MOTION": 2.13102928,
    "ECCENTRICITY": 0.00129231,
    "INCLINATION": 65.5707,
    "RA_OF_ASC_NODE": 73.4383,
    "ARG_OF_PERICENTER": 257.6247,
    "MEAN_ANOMALY": 102.267,
    "EPHEMERIS_TYPE": 0,
    "CLASSIFICATION_TYPE": "U",
    "NORAD_CAT_ID": 44850,
    "ELEMENT_SET_NO": 999,
    "REV_AT_EPOCH": 5090,
    "BSTAR": 0,
    "MEAN_MOTION_DOT": -6.3e-07,
    "MEAN_MOTION_DDOT": 0
  },
  {
    "OBJECT_NAME": "COSMOS 2545 (760)",
    "OBJECT_ID": "2020-018A",
    "EPOCH": "2026-06-26T03:22:01.430976",
    "MEAN_MOTION": 2.13102524,
    "ECCENTRICITY": 0.000876,
    "INCLINATION": 64.3492,
    "RA_OF_ASC_NODE": 312.1035,
    "ARG_OF_PERICENTER": 229.5859,
    "MEAN_ANOMALY": 130.3273,
    "EPHEMERIS_TYPE": 0,
    "CLASSIFICATION_TYPE": "U",
    "NORAD_CAT_ID": 45358,
    "ELEMENT_SET_NO": 999,
    "REV_AT_EPOCH": 4885,
    "BSTAR": 0,
    "MEAN_MOTION_DOT": -8.6e-07,
    "MEAN_MOTION_DDOT": 0
  },
  {
    "OBJECT_NAME": "COSMOS 2564 (761)",
    "OBJECT_ID": "2022-161A",
    "EPOCH": "2026-06-26T03:46:07.714272",
    "MEAN_MOTION": 2.13102114,
    "ECCENTRICITY": 0.00122568,
    "INCLINATION": 64.7425,
    "RA_OF_ASC_NODE": 192.4139,
    "ARG_OF_PERICENTER": 225.0447,
    "MEAN_ANOMALY": 134.9097,
    "EPHEMERIS_TYPE": 0,
    "CLASSIFICATION_TYPE": "U",
    "NORAD_CAT_ID": 54377,
    "ELEMENT_SET_NO": 999,
    "REV_AT_EPOCH": 2782,
    "BSTAR": 0,
    "MEAN_MOTION_DOT": 1.07e-06,
    "MEAN_MOTION_DDOT": 0
  }
]
